[
    {
        "Altitude(m)": 553860.0044481921,
        "Argument of Periapsis(deg)": 0.006622991110713501,
        "Eccentricity": 0.0,
        "Inclination(deg)": 53.0,
        "Latitude(deg)": 3.4930403644969394,
        "Longitude(deg)": 76.60516035974857,
        "Mean Anomaly(deg)": 175.5461928675776,
        "RAAN(deg)": -0.009856631471983178,
        "Satellite Name": "Starlink Shell 1 10",
        "Satellite Number": 10,
        "Semi-Major Axis(m)": 6931778.249405717,
        "Time(s)": 190
    },
    {
        "Altitude(m)": 553907.2842134767,
        "Argument of Periapsis(deg)": 0.0069715695902247375,
        "Eccentricity": 0.0,
        "Inclination(deg)": 53.0,
        "Latitude(deg)": 2.9895148660414095,
        "Longitude(deg)": 76.94177176615253,
        "Mean Anomaly(deg)": 176.1730240711343,
        "RAAN(deg)": -0.010375401549455977,
        "Satellite Name": "Starlink Shell 1 10",
        "Satellite Number": 10,
        "Semi-Major Axis(m)": 6931778.249405717,
        "Time(s)": 200
    },
    {
        "Altitude(m)": 553957.3837055224,
        "Argument of Periapsis(deg)": 0.007320148069735974,
        "Eccentricity": 0.0,
        "Inclination(deg)": 53.0,
        "Latitude(deg)": 2.485862629256185,
        "Longitude(deg)": 77.27803293072043,
        "Mean Anomaly(deg)": 176.79985527469103,
        "RAAN(deg)": -0.010894171626928776,
        "Satellite Name": "Starlink Shell 1 10",
        "Satellite Number": 10,
        "Semi-Major Axis(m)": 6931778.249405717,
        "Time(s)": 210
    },
    {
        "Altitude(m)": 554010.3022946503,
        "Argument of Periapsis(deg)": 0.007668726549247212,
        "Eccentricity": 0.0,
        "Inclination(deg)": 53.0,
        "Latitude(deg)": 1.9821067399336536,
        "Longitude(deg)": 77.61400178034775,
        "Mean Anomaly(deg)": 177.42668647824775,
        "RAAN(deg)": -0.011412941704401575,
        "Satellite Name": "Starlink Shell 1 10",
        "Satellite Number": 10,
        "Semi-Major Axis(m)": 6931778.249405717,
        "Time(s)": 220
    },
    {
        "Altitude(m)": 554066.0379984053,
        "Argument of Periapsis(deg)": 0.00801730502875845,
        "Eccentricity": 0.0,
        "Inclination(deg)": 53.0,
        "Latitude(deg)": 1.4782702222214024,
        "Longitude(deg)": 77.94973611159682,
        "Mean Anomaly(deg)": 178.05351768180446,
        "RAAN(deg)": -0.011931711781874374,
        "Satellite Name": "Starlink Shell 1 10",
        "Satellite Number": 10,
        "Semi-Major Axis(m)": 6931778.249405717,
        "Time(s)": 230
    },
    {
        "Altitude(m)": 554124.5874797968,
        "Argument of Periapsis(deg)": 0.008365883508269684,
        "Eccentricity": 0.0,
        "Inclination(deg)": 53.0,
        "Latitude(deg)": 0.9743760504201172,
        "Longitude(deg)": 78.2852941203097,
        "Mean Anomaly(deg)": 178.68034888536116,
        "RAAN(deg)": -0.012450481859347171,
        "Satellite Name": "Starlink Shell 1 10",
        "Satellite Number": 10,
        "Semi-Major Axis(m)": 6931778.249405717,
        "Time(s)": 240
    },
    {
        "Altitude(m)": 554185.9460461866,
        "Argument of Periapsis(deg)": 0.008714461987780921,
        "Eccentricity": 0.0,
        "Inclination(deg)": 53.0,
        "Latitude(deg)": 0.4704471607338686,
        "Longitude(deg)": 78.6207334183126,
        "Mean Anomaly(deg)": 179.3071800889179,
        "RAAN(deg)": -0.012969251936819972,
        "Satellite Name": "Starlink Shell 1 10",
        "Satellite Number": 10,
        "Semi-Major Axis(m)": 6931778.249405717,
        "Time(s)": 250
    },
    {
        "Altitude(m)": 554250.1076488757,
        "Argument of Periapsis(deg)": 0.009063040467292158,
        "Eccentricity": 0.0,
        "Inclination(deg)": 53.0,
        "Latitude(deg)": -0.033493537013929944,
        "Longitude(deg)": 78.9561115629661,
        "Mean Anomaly(deg)": 179.9340112924746,
        "RAAN(deg)": -0.013488022014292769,
        "Satellite Name": "Starlink Shell 1 10",
        "Satellite Number": 10,
        "Semi-Major Axis(m)": 6931778.249405717,
        "Time(s)": 260
    },
    {
        "Altitude(m)": 554317.0648833418,
        "Argument of Periapsis(deg)": 0.009411618946803396,
        "Eccentricity": 0.0,
        "Inclination(deg)": 53.0,
        "Latitude(deg)": -0.537423147688574,
        "Longitude(deg)": 79.29148658669521,
        "Mean Anomaly(deg)": 180.56084249603134,
        "RAAN(deg)": -0.014006792091765568,
        "Satellite Name": "Starlink Shell 1 10",
        "Satellite Number": 10,
        "Semi-Major Axis(m)": 6931778.249405717,
        "Time(s)": 270
    },
    {
        "Altitude(m)": 554386.808990192,
        "Argument of Periapsis(deg)": 0.009760197426314633,
        "Eccentricity": 0.0,
        "Inclination(deg)": 53.0,
        "Latitude(deg)": -1.0413187791662333,
        "Longitude(deg)": 79.6269160136339,
        "Mean Anomaly(deg)": 181.18767369958806,
        "RAAN(deg)": -0.014525562169238369,
        "Satellite Name": "Starlink Shell 1 10",
        "Satellite Number": 10,
        "Semi-Major Axis(m)": 6931778.249405717,
        "Time(s)": 280
    },
    {
        "Altitude(m)": 554459.3298567542,
        "Argument of Periapsis(deg)": 0.01010877590582587,
        "Eccentricity": 0.0,
        "Inclination(deg)": 53.0,
        "Latitude(deg)": -1.5451575306561793,
        "Longitude(deg)": 79.96245738913781,
        "Mean Anomaly(deg)": 181.81450490314475,
        "RAAN(deg)": -0.015044332246711162,
        "Satellite Name": "Starlink Shell 1 10",
        "Satellite Number": 10,
        "Semi-Major Axis(m)": 6931778.249405717,
        "Time(s)": 290
    },
    {
        "Altitude(m)": 554534.6160193873,
        "Argument of Periapsis(deg)": 0.010457354385337106,
        "Eccentricity": 0.0,
        "Inclination(deg)": 53.0,
        "Latitude(deg)": -2.048916481013896,
        "Longitude(deg)": 80.29816880929998,
        "Mean Anomaly(deg)": 182.44133610670147,
        "RAAN(deg)": -0.015563102324183963,
        "Satellite Name": "Starlink Shell 1 10",
        "Satellite Number": 10,
        "Semi-Major Axis(m)": 6931778.249405717,
        "Time(s)": 300
    },
    {
        "Altitude(m)": 554612.6546664261,
        "Argument of Periapsis(deg)": 0.010805932864848343,
        "Eccentricity": 0.0,
        "Inclination(deg)": 53.0,
        "Latitude(deg)": -2.552572677033763,
        "Longitude(deg)": 80.63410793760403,
        "Mean Anomaly(deg)": 183.0681673102582,
        "RAAN(deg)": -0.016081872401656764,
        "Satellite Name": "Starlink Shell 1 10",
        "Satellite Number": 10,
        "Semi-Major Axis(m)": 6931778.249405717,
        "Time(s)": 310
    },
    {
        "Altitude(m)": 554693.4316418441,
        "Argument of Periapsis(deg)": 0.01115451134435958,
        "Eccentricity": 0.0,
        "Inclination(deg)": 53.0,
        "Latitude(deg)": -3.056103121709129,
        "Longitude(deg)": 80.97033253446844,
        "Mean Anomaly(deg)": 183.69499851381488,
        "RAAN(deg)": -0.01660064247912956,
        "Satellite Name": "Starlink Shell 1 10",
        "Satellite Number": 10,
        "Semi-Major Axis(m)": 6931778.249405717,
        "Time(s)": 320
    },
    {
        "Altitude(m)": 554776.9314495429,
        "Argument of Periapsis(deg)": 0.011503089823870818,
        "Eccentricity": 0.0,
        "Inclination(deg)": 53.0,
        "Latitude(deg)": -3.5594847624486574,
        "Longitude(deg)": 81.30690098681617,
        "Mean Anomaly(deg)": 184.32182971737163,
        "RAAN(deg)": -0.01711941255660236,
        "Satellite Name": "Starlink Shell 1 10",
        "Satellite Number": 10,
        "Semi-Major Axis(m)": 6931778.249405717,
        "Time(s)": 330
    },
    {
        "Altitude(m)": 554863.1372583614,
        "Argument of Periapsis(deg)": 0.011851668303382053,
        "Eccentricity": 0.0,
        "Inclination(deg)": 53.0,
        "Latitude(deg)": -4.062694479238821,
        "Longitude(deg)": 81.64387132480378,
        "Mean Anomaly(deg)": 184.94866092092835,
        "RAAN(deg)": -0.01763818263407516,
        "Satellite Name": "Starlink Shell 1 10",
        "Satellite Number": 10,
        "Semi-Major Axis(m)": 6931778.249405717,
        "Time(s)": 340
    },
    {
        "Altitude(m)": 554952.0309077088,
        "Argument of Periapsis(deg)": 0.012200246782893292,
        "Eccentricity": 0.0,
        "Inclination(deg)": 53.0,
        "Latitude(deg)": -4.565709072739824,
        "Longitude(deg)": 81.98130175146345,
        "Mean Anomaly(deg)": 185.57549212448504,
        "RAAN(deg)": -0.018156952711547956,
        "Satellite Name": "Starlink Shell 1 10",
        "Satellite Number": 10,
        "Semi-Major Axis(m)": 6931778.249405717,
        "Time(s)": 350
    },
    {
        "Altitude(m)": 555043.5929138951,
        "Argument of Periapsis(deg)": 0.012548825262404526,
        "Eccentricity": 0.0,
        "Inclination(deg)": 53.0,
        "Latitude(deg)": -5.068505252303812,
        "Longitude(deg)": 82.31925117239076,
        "Mean Anomaly(deg)": 186.20232332804176,
        "RAAN(deg)": -0.01867572278902076,
        "Satellite Name": "Starlink Shell 1 10",
        "Satellite Number": 10,
        "Semi-Major Axis(m)": 6931778.249405717,
        "Time(s)": 360
    },
    {
        "Altitude(m)": 555137.8024771103,
        "Argument of Periapsis(deg)": 0.012897403741915765,
        "Eccentricity": 0.0,
        "Inclination(deg)": 53.0,
        "Latitude(deg)": -5.571059623905483,
        "Longitude(deg)": 82.65777821261243,
        "Mean Anomaly(deg)": 186.82915453159845,
        "RAAN(deg)": -0.019194492866493558,
        "Satellite Name": "Starlink Shell 1 10",
        "Satellite Number": 10,
        "Semi-Major Axis(m)": 6931778.249405717,
        "Time(s)": 370
    }
]